NORAD_CAT_ID,OBJECT_NAME,OBJECT_TYPE,EPOCH,MEAN_MOTION,ECCENTRICITY,INCLINATION,RA_OF_ASC_NODE,ARG_OF_PERICENTER,MEAN_ANOMALY,BSTAR,MEAN_MOTION_DOT,MEAN_MOTION_DDOT,TLE_LINE0,TLE_LINE1,TLE_LINE2,SEMIMAJOR_AXIS,PERIOD,APOGEE,PERIGEE,DECAYED
54762.0,STARLINK-5214,PAYLOAD,2023-10-17 11:46:32,15.08852259,0.0001798,53.2179,8.6239,89.1255,270.9944,0.00043742,6.683e-05,0.0,0 STARLINK-5214,1 54762U 22175E   23290.49065110  .00006683  00000-0  43742-3 0  9999,2 54762  53.2179   8.6239 0001798  89.1255 270.9944 15.08852259 45780,6917.843,95.437,540.952,538.464,0.0
54762.0,STARLINK-5214,PAYLOAD,2023-10-17 22:54:14,15.08847024,0.0001633,53.2183,6.545,82.92,277.1978,0.00043278,6.608e-05,0.0,0 STARLINK-5214,1 54762U 22175E   23290.95433170  .00006608  00000-0  43278-3 0  9996,2 54762  53.2183   6.5450 0001633  82.9200 277.1978 15.08847024 48015,6917.859,95.437,540.854,538.594,0.0
54762.0,STARLINK-5214,PAYLOAD,2023-10-18 11:37:19,15.08849857,0.0001828,53.2188,4.1655,88.9768,271.1434,0.00012335,1.676e-05,0.0,0 STARLINK-5214,1 54762U 22175E   23291.48424990  .00001676  00000-0  12335-3 0  9995,2 54762  53.2188   4.1655 0001828  88.9768 271.1434 15.08849857 45937,6917.85,95.437,540.98,538.451,0.0
54762.0,STARLINK-5214,PAYLOAD,2023-10-19 11:28:05,15.08854923,0.0001834,53.2184,359.7049,93.0463,267.0739,0.00031636,4.752e-05,0.0,0 STARLINK-5214,1 54762U 22175E   23292.47784603  .00004752  00000-0  31636-3 0  9998,2 54762  53.2184 359.7049 0001834  93.0463 267.0739 15.08854923 48244,6917.835,95.437,540.969,538.431,0.0
54762.0,STARLINK-5214,PAYLOAD,2023-10-19 21:00:24,15.08847095,0.0001942,53.219,357.9192,86.602,273.5194,0.00015787,2.226e-05,0.0,0 STARLINK-5214,1 54762U 22175E   23292.87528752  .00002226  00000-0  15787-3 0  9996,2 54762  53.2190 357.9192 0001942  86.6020 273.5194 15.08847095 46143,6917.859,95.437,541.067,538.38,0.0
54762.0,STARLINK-5214,PAYLOAD,2023-10-20 09:43:30,15.08834646,0.0002221,53.2198,355.5418,122.0479,238.0729,-0.00011076,-2.05e-05,0.0,0 STARLINK-5214,1 54762U 22175E   23293.40521058 -.00002050  00000-0 -11076-3 0  9992,2 54762  53.2198 355.5418 0002221 122.0479 238.0729 15.08834646 46227,6917.897,95.438,541.298,538.225,0.0
54762.0,STARLINK-5214,PAYLOAD,2023-10-21 11:09:40,15.08847304,0.0001568,53.2191,350.7851,97.93,262.1871,0.00016364,2.318e-05,0.0,0 STARLINK-5214,1 54762U 22175E   23294.46505234  .00002318  00000-0  16364-3 0  9997,2 54762  53.2191 350.7851 0001568  97.9300 262.1871 15.08847304 46382,6917.858,95.437,540.808,538.638,0.0
54762.0,STARLINK-5214,PAYLOAD,2023-10-21 12:45:03,15.08844336,0.0001734,53.2191,350.4876,95.6852,264.4337,0.00021022,3.06e-05,0.0,0 STARLINK-5214,1 54762U 22175E   23294.53129393  .00003060  00000-0  21022-3 0  9995,2 54762  53.2191 350.4876 0001734  95.6852 264.4337 15.08844336 48553,6917.867,95.437,540.932,538.533,0.0
54762.0,STARLINK-5214,PAYLOAD,2023-10-21 20:41:59,15.08843397,0.0001407,53.2185,348.9992,79.0695,281.0455,0.00020406,2.961e-05,0.0,0 STARLINK-5214,1 54762U 22175E   23294.86249500  .00002961  00000-0  20406-3 0  9998,2 54762  53.2185 348.9992 0001407  79.0695 281.0455 15.08843397 48603,6917.87,95.437,540.708,538.762,0.0
54762.0,STARLINK-5214,PAYLOAD,2023-10-22 11:00:28,15.08837186,0.0001585,53.2192,346.3233,86.6423,273.475,0.00015971,2.255e-05,0.0,0 STARLINK-5214,1 54762U 22175E   23295.45865913  .00002255  00000-0  15971-3 0  9993,2 54762  53.2192 346.3233 0001585  86.6423 273.4750 15.08837186 46533,6917.889,95.438,540.85,538.658,0.0
54762.0,STARLINK-5214,PAYLOAD,2023-10-22 12:35:51,15.08839686,0.0001664,53.2194,346.0262,87.2564,272.8618,0.0001672,2.374e-05,0.0,0 STARLINK-5214,1 54762U 22175E   23295.52489751  .00002374  00000-0  16720-3 0  9998,2 54762  53.2194 346.0262 0001664  87.2564 272.8618 15.08839686 48709,6917.881,95.438,540.897,538.595,0.0
54762.0,STARLINK-5214,PAYLOAD,2023-10-22 20:32:46,15.08840845,0.0001535,53.219,344.538,89.2918,270.825,0.00015031,2.105e-05,0.0,0 STARLINK-5214,1 54762U 22175E   23295.85609709  .00002105  00000-0  15031-3 0  9997,2 54762  53.2190 344.5380 0001535  89.2918 270.8250 15.08840845 48755,6917.878,95.438,540.805,538.681,0.0
54762.0,STARLINK-5214,PAYLOAD,2023-10-23 10:51:14,15.08857641,0.0001527,53.2183,341.8634,86.2423,273.8744,0.00030854,4.628e-05,0.0,0 STARLINK-5214,1 54762U 22175E   23296.45224851  .00004628  00000-0  30854-3 0  9997,2 54762  53.2183 341.8634 0001527  86.2423 273.8744 15.08857641 46681,6917.826,95.436,540.748,538.635,0.0
54762.0,STARLINK-5214,PAYLOAD,2023-10-23 20:23:33,15.08845832,0.000156,53.2194,340.0794,88.8611,271.256,0.00010473,1.379e-05,0.0,0 STARLINK-5214,1 54762U 22175E   23296.84969189  .00001379  00000-0  10473-3 0  9995,2 54762  53.2194 340.0794 0001560  88.8611 271.2560 15.08845832 46749,6917.863,95.437,540.807,538.648,0.0
54762.0,STARLINK-5214,PAYLOAD,2023-10-24 09:06:39,15.08836103,0.0001512,53.218,337.6987,95.2234,264.8931,-1.885e-05,-5.88e-06,0.0,0 STARLINK-5214,1 54762U 22175E   23297.37961857 -.00000588  00000-0 -18850-4 0  9999,2 54762  53.2180 337.6987 0001512  95.2234 264.8931 15.08836103 46820,6917.892,95.438,540.803,538.711,0.0
54762.0,STARLINK-5214,PAYLOAD,2023-10-25 08:57:26,15.08844931,0.0001597,53.2172,333.2396,95.0086,265.1089,0.00019816,2.868e-05,0.0,0 STARLINK-5214,1 54762U 22175E   23298.37321764  .00002868  00000-0  19816-3 0  9990,2 54762  53.2172 333.2396 0001597  95.0086 265.1089 15.08844931 46975,6917.865,95.437,540.835,538.626,0.0
54762.0,STARLINK-5214,PAYLOAD,2023-10-26 02:26:40,15.08842002,0.0001612,53.2166,329.9686,96.3748,263.7428,0.00032542,4.895e-05,0.0,0 STARLINK-5214,1 54762U 22175E   23299.10186195  .00004895  00000-0  32542-3 0  9992,2 54762  53.2166 329.9686 0001612  96.3748 263.7428 15.08842002 47080,6917.874,95.437,540.854,538.624,0.0
54762.0,STARLINK-5214,PAYLOAD,2023-10-26 08:48:13,15.08848851,0.0001614,53.2169,328.7793,96.4473,263.6703,0.00039083,5.939e-05,0.0,0 STARLINK-5214,1 54762U 22175E   23299.36681951  .00005939  00000-0  39083-3 0  9997,2 54762  53.2169 328.7793 0001614  96.4473 263.6703 15.08848851 49284,6917.853,95.437,540.835,538.602,0.0
54762.0,STARLINK-5214,PAYLOAD,2023-10-27 11:49:45,15.08852997,0.000171,53.2174,323.7245,99.2643,260.8542,0.00021183,3.086e-05,0.0,0 STARLINK-5214,1 54762U 22175E   23300.49289237  .00003086  00000-0  21183-3 0  9998,2 54762  53.2174 323.7245 0001710  99.2643 260.8542 15.08852997 47299,6917.841,95.437,540.889,538.523,0.0
54762.0,STARLINK-5214,PAYLOAD,2023-10-27 18:11:18,15.08845438,0.0001519,53.2163,322.5316,88.5864,271.5302,6.4843e-05,7.44e-06,0.0,0 STARLINK-5214,1 54762U 22175E   23300.75785480  .00000744  00000-0  64843-4 0  9997,2 54762  53.2163 322.5316 0001519  88.5864 271.5302 15.08845438 47336,6917.864,95.437,540.78,538.678,0.0
54762.0,STARLINK-5214,PAYLOAD,2023-10-28 08:29:47,15.08830639,0.0001819,53.2185,319.8621,101.1358,258.9839,-9.5334e-05,-1.805e-05,0.0,0 STARLINK-5214,1 54762U 22175E   23301.35402576 -.00001805  00000-0 -95334-4 0  9996,2 54762  53.2185 319.8621 0001819 101.1358 258.9839 15.08830639 47422,6917.909,95.438,541.032,538.516,0.0
54762.0,STARLINK-5214,PAYLOAD,2023-10-28 18:02:06,15.08833085,0.0001825,53.2184,318.0778,101.2319,258.8878,-1.9368e-05,-5.96e-06,0.0,0 STARLINK-5214,1 54762U 22175E   23301.75146684 -.00000596  00000-0 -19368-4 0  9994,2 54762  53.2184 318.0778 0001825 101.2319 258.8878 15.08833085 49646,6917.902,95.438,541.029,538.504,0.0
54762.0,STARLINK-5214,PAYLOAD,2023-10-29 05:09:48,15.08847134,0.0001733,53.218,315.9962,100.5718,259.547,0.00020229,2.933e-05,0.0,0 STARLINK-5214,1 54762U 22175E   23302.21514124  .00002933  00000-0  20229-3 0  9996,2 54762  53.2180 315.9962 0001733 100.5718 259.5470 15.08847134 47550,6917.859,95.437,540.922,538.525,0.0
54762.0,STARLINK-5214,PAYLOAD,2023-10-29 08:20:34,15.0884998,0.000175,53.2178,315.4014,100.6519,259.4671,0.00037636,5.708e-05,0.0,0 STARLINK-5214,1 54762U 22175E   23302.34762157  .00005708  00000-0  37636-3 0  9994,2 54762  53.2178 315.4014 0001750 100.6519 259.4671 15.08849980 49734,6917.85,95.437,540.926,538.504,0.0
54762.0,STARLINK-5214,PAYLOAD,2023-10-29 17:52:53,15.08847152,0.0001479,53.2163,313.6137,83.7852,276.3308,0.00039982,6.082e-05,0.0,0 STARLINK-5214,1 54762U 22175E   23302.74506262  .00006082  00000-0  39982-3 0  9993,2 54762  53.2163 313.6137 0001479  83.7852 276.3308 15.08847152 47634,6917.859,95.437,540.747,538.7,0.0
54762.0,STARLINK-5214,PAYLOAD,2023-10-30 05:00:35,15.08835235,0.0002246,53.218,311.5309,86.3104,273.8145,2.6254e-05,1.29e-06,0.0,0 STARLINK-5214,1 54762U 22175E   23303.20874883  .00000129  00000-0  26254-4 0  9997,2 54762  53.2180 311.5309 0002246  86.3104 273.8145 15.08835235 47701,6917.895,95.438,541.314,538.206,0.0
54762.0,STARLINK-5214,PAYLOAD,2023-10-30 17:43:41,15.0883995,0.0001642,53.2173,309.152,83.2972,276.8207,0.00016494,2.338e-05,0.0,0 STARLINK-5214,1 54762U 22175E   23303.73866922  .00002338  00000-0  16494-3 0  9998,2 54762  53.2173 309.1520 0001642  83.2972 276.8207 15.08839950 49947,6917.881,95.438,540.881,538.61,0.0
54762.0,STARLINK-5214,PAYLOAD,2023-10-31 08:02:09,15.08845494,0.0001784,53.2178,306.4756,89.8533,270.2663,0.0005325,8.198e-05,0.0,0 STARLINK-5214,1 54762U 22175E   23304.33482993  .00008198  00000-0  53250-3 0  9998,2 54762  53.2178 306.4756 0001784  89.8533 270.2663 15.08845494 47879,6917.864,95.437,540.963,538.494,0.0
54762.0,STARLINK-5214,PAYLOAD,2023-10-31 17:34:28,15.08839749,0.0001769,53.219,304.6922,87.2098,272.9097,0.00023629,3.474e-05,0.0,0 STARLINK-5214,1 54762U 22175E   23304.73227213  .00003474  00000-0  23629-3 0  9993,2 54762  53.2190 304.6922 0001769  87.2098 272.9097 15.08839749 47932,6917.881,95.438,540.97,538.522,0.0
54762.0,STARLINK-5214,PAYLOAD,2023-11-01 09:28:19,15.08852169,0.000169,53.2179,301.7177,92.582,267.5365,0.00046601,7.139e-05,0.0,0 STARLINK-5214,1 54762U 22175E   23305.39466824  .00007139  00000-0  46601-3 0  9996,2 54762  53.2179 301.7177 0001690  92.5820 267.5365 15.08852169 50195,6917.843,95.437,540.877,538.539,0.0
